[
{"CCSDS_OMM_VERS":"2.0",
"COMMENT":"GENERATED VIA SPACE-TRACK.ORG API",
"CREATION_DATE":"2022-09-18T22:36:12",
"ORIGINATOR":"18 SPCS",
"OBJECT_NAME":"VANGUARD 1",
"OBJECT_ID":"1958-002B",
"CENTER_NAME":"EARTH",
"REF_FRAME":"TEME",
"TIME_SYSTEM":"UTC",
"MEAN_ELEMENT_THEORY":"SGP4",
"EPOCH":"2022-09-18T20:02:59.125920",
"MEAN_MOTION":"10.85008093",
"ECCENTRICITY":"0.18469400",
"INCLINATION":"34.2439",
"RA_OF_ASC_NODE":"211.6275",
"ARG_OF_PERICENTER":"97.8577",
"MEAN_ANOMALY":"283.4502",
"EPHEMERIS_TYPE":"0",
"CLASSIFICATION_TYPE":"U",
"NORAD_CAT_ID":"5",
"ELEMENT_SET_NO":"999",
"REV_AT_EPOCH":"29478",
"BSTAR":"0.00029713000000",
"MEAN_MOTION_DOT":"0.00000219",
"MEAN_MOTION_DDOT":"0.0000000000000",
"SEMIMAJOR_AXIS":"8618.794",
"PERIOD":"132.718",
"APOAPSIS":"3832.499",
"PERIAPSIS":"648.820",
"OBJECT_TYPE":"PAYLOAD",
"RCS_SIZE":"SMALL",
"COUNTRY_CODE":"US",
"LAUNCH_DATE":"1958-03-17",
"SITE":"AFETR",
"DECAY_DATE":null,
"FILE":"3577253",
"GP_ID":"212938465",
"TLE_LINE0":"0 VANGUARD 1",
"TLE_LINE1":"1     5U 58002B   22261.83540655  .00000219  00000-0  29713-3 0  9996",
"TLE_LINE2":"2     5  34.2439 211.6275 1846940  97.8577 283.4502 10.85008093294789"},
{"CCSDS_OMM_VERS":"2.0",
"COMMENT":"GENERATED VIA SPACE-TRACK.ORG API",
"CREATION_DATE":"2022-09-19T18:05:30",
"ORIGINATOR":"18 SPCS",
"OBJECT_NAME":"VANGUARD 1",
"OBJECT_ID":"1958-002B",
"CENTER_NAME":"EARTH",
"REF_FRAME":"TEME",
"TIME_SYSTEM":"UTC",
"MEAN_ELEMENT_THEORY":"SGP4",
"EPOCH":"2022-09-19T07:05:48.378048",
"MEAN_MOTION":"10.85008285",
"ECCENTRICITY":"0.18469270",
"INCLINATION":"34.2439",
"RA_OF_ASC_NODE":"210.2090",
"ARG_OF_PERICENTER":"99.9296",
"MEAN_ANOMALY":"281.3666",
"EPHEMERIS_TYPE":"0",
"CLASSIFICATION_TYPE":"U",
"NORAD_CAT_ID":"5",
"ELEMENT_SET_NO":"999",
"REV_AT_EPOCH":"29473",
"BSTAR":"0.00028159000000",
"MEAN_MOTION_DOT":"0.00000207",
"MEAN_MOTION_DDOT":"0.0000000000000",
"SEMIMAJOR_AXIS":"8618.793",
"PERIOD":"132.718",
"APOAPSIS":"3832.487",
"PERIAPSIS":"648.830",
"OBJECT_TYPE":"PAYLOAD",
"RCS_SIZE":"SMALL",
"COUNTRY_CODE":"US",
"LAUNCH_DATE":"1958-03-17",
"SITE":"AFETR",
"DECAY_DATE":null,
"FILE":"3577889",
"GP_ID":"212979279",
"TLE_LINE0":"0 VANGUARD 1",
"TLE_LINE1":"1 00005U 58002B   22262.29569882  .00000207  00000-0  28159-3 0  9990",
"TLE_LINE2":"2 00005  34.2439 210.2090 1846927  99.9296 281.3666 10.85008285294731"},
{"CCSDS_OMM_VERS":"2.0",
"COMMENT":"GENERATED VIA SPACE-TRACK.ORG API",
"CREATION_DATE":"2022-09-20T02:11:12",
"ORIGINATOR":"18 SPCS",
"OBJECT_NAME":"VANGUARD 1",
"OBJECT_ID":"1958-002B",
"CENTER_NAME":"EARTH",
"REF_FRAME":"TEME",
"TIME_SYSTEM":"UTC",
"MEAN_ELEMENT_THEORY":"SGP4",
"EPOCH":"2022-09-19T20:21:10.632672",
"MEAN_MOTION":"10.85008548",
"ECCENTRICITY":"0.18469120",
"INCLINATION":"34.2439",
"RA_OF_ASC_NODE":"208.5066",
"ARG_OF_PERICENTER":"102.4162",
"MEAN_ANOMALY":"278.8283",
"EPHEMERIS_TYPE":"0",
"CLASSIFICATION_TYPE":"U",
"NORAD_CAT_ID":"5",
"ELEMENT_SET_NO":"999",
"REV_AT_EPOCH":"29479",
"BSTAR":"0.00027549000000",
"MEAN_MOTION_DOT":"0.00000203",
"MEAN_MOTION_DDOT":"0.0000000000000",
"SEMIMAJOR_AXIS":"8618.792",
"PERIOD":"132.718",
"APOAPSIS":"3832.472",
"PERIAPSIS":"648.842",
"OBJECT_TYPE":"PAYLOAD",
"RCS_SIZE":"SMALL",
"COUNTRY_CODE":"US",
"LAUNCH_DATE":"1958-03-17",
"SITE":"AFETR",
"DECAY_DATE":null,
"FILE":"3578162",
"GP_ID":"213011061",
"TLE_LINE0":"0 VANGUARD 1",
"TLE_LINE1":"1 00005U 58002B   22262.84803973  .00000203  00000-0  27549-3 0  9991",
"TLE_LINE2":"2 00005  34.2439 208.5066 1846912 102.4162 278.8283 10.85008548294794"},
{"CCSDS_OMM_VERS":"2.0",
"COMMENT":"GENERATED VIA SPACE-TRACK.ORG API",
"CREATION_DATE":"2022-09-20T18:11:00",
"ORIGINATOR":"18 SPCS",
"OBJECT_NAME":"VANGUARD 1",
"OBJECT_ID":"1958-002B",
"CENTER_NAME":"EARTH",
"REF_FRAME":"TEME",
"TIME_SYSTEM":"UTC",
"MEAN_ELEMENT_THEORY":"SGP4",
"EPOCH":"2022-09-20T02:58:51.405312",
"MEAN_MOTION":"10.85008683",
"ECCENTRICITY":"0.18469020",
"INCLINATION":"34.2439",
"RA_OF_ASC_NODE":"207.6554",
"ARG_OF_PERICENTER":"103.6596",
"MEAN_ANOMALY":"277.5434",
"EPHEMERIS_TYPE":"0",
"CLASSIFICATION_TYPE":"U",
"NORAD_CAT_ID":"5",
"ELEMENT_SET_NO":"999",
"REV_AT_EPOCH":"29482",
"BSTAR":"0.00026885000000",
"MEAN_MOTION_DOT":"0.00000198",
"MEAN_MOTION_DDOT":"0.0000000000000",
"SEMIMAJOR_AXIS":"8618.791",
"PERIOD":"132.718",
"APOAPSIS":"3832.463",
"PERIAPSIS":"648.850",
"OBJECT_TYPE":"PAYLOAD",
"RCS_SIZE":"SMALL",
"COUNTRY_CODE":"US",
"LAUNCH_DATE":"1958-03-17",
"SITE":"AFETR",
"DECAY_DATE":null,
"FILE":"3578736",
"GP_ID":"213049046",
"TLE_LINE0":"0 VANGUARD 1",
"TLE_LINE1":"1 00005U 58002B   22263.12420608  .00000198  00000-0  26885-3 0  9998",
"TLE_LINE2":"2 00005  34.2439 207.6554 1846902 103.6596 277.5434 10.85008683294827"},
{"CCSDS_OMM_VERS":"2.0",
"COMMENT":"GENERATED VIA SPACE-TRACK.ORG API",
"CREATION_DATE":"2022-09-22T02:17:54",
"ORIGINATOR":"18 SPCS",
"OBJECT_NAME":"VANGUARD 1",
"OBJECT_ID":"1958-002B",
"CENTER_NAME":"EARTH",
"REF_FRAME":"TEME",
"TIME_SYSTEM":"UTC",
"MEAN_ELEMENT_THEORY":"SGP4",
"EPOCH":"2022-09-21T03:16:58.904832",
"MEAN_MOTION":"10.85009204",
"ECCENTRICITY":"0.18468670",
"INCLINATION":"34.2439",
"RA_OF_ASC_NODE":"204.5346",
"ARG_OF_PERICENTER":"108.2181",
"MEAN_ANOMALY":"272.7424",
"EPHEMERIS_TYPE":"0",
"CLASSIFICATION_TYPE":"U",
"NORAD_CAT_ID":"5",
"ELEMENT_SET_NO":"999",
"REV_AT_EPOCH":"29493",
"BSTAR":"0.00027090000000",
"MEAN_MOTION_DOT":"0.00000200",
"MEAN_MOTION_DDOT":"0.0000000000000",
"SEMIMAJOR_AXIS":"8618.789",
"PERIOD":"132.718",
"APOAPSIS":"3832.429",
"PERIAPSIS":"648.878",
"OBJECT_TYPE":"PAYLOAD",
"RCS_SIZE":"SMALL",
"COUNTRY_CODE":"US",
"LAUNCH_DATE":"1958-03-17",
"SITE":"AFETR",
"DECAY_DATE":null,
"FILE":"3579752",
"GP_ID":"213169530",
"TLE_LINE0":"0 VANGUARD 1",
"TLE_LINE1":"1 00005U 58002B   22264.13679288  .00000200  00000-0  27090-3 0  9993",
"TLE_LINE2":"2 00005  34.2439 204.5346 1846867 108.2181 272.7424 10.85009204294931"},
{"CCSDS_OMM_VERS":"2.0",
"COMMENT":"GENERATED VIA SPACE-TRACK.ORG API",
"CREATION_DATE":"2022-09-21T06:56:13",
"ORIGINATOR":"18 SPCS",
"OBJECT_NAME":"VANGUARD 1",
"OBJECT_ID":"1958-002B",
"CENTER_NAME":"EARTH",
"REF_FRAME":"TEME",
"TIME_SYSTEM":"UTC",
"MEAN_ELEMENT_THEORY":"SGP4",
"EPOCH":"2022-09-21T03:16:58.904832",
"MEAN_MOTION":"10.85009204",
"ECCENTRICITY":"0.18468670",
"INCLINATION":"34.2439",
"RA_OF_ASC_NODE":"204.5346",
"ARG_OF_PERICENTER":"108.2181",
"MEAN_ANOMALY":"272.7424",
"EPHEMERIS_TYPE":"0",
"CLASSIFICATION_TYPE":"U",
"NORAD_CAT_ID":"5",
"ELEMENT_SET_NO":"999",
"REV_AT_EPOCH":"29503",
"BSTAR":"0.00027090000000",
"MEAN_MOTION_DOT":"0.00000200",
"MEAN_MOTION_DDOT":"0.0000000000000",
"SEMIMAJOR_AXIS":"8618.789",
"PERIOD":"132.718",
"APOAPSIS":"3832.429",
"PERIAPSIS":"648.878",
"OBJECT_TYPE":"PAYLOAD",
"RCS_SIZE":"SMALL",
"COUNTRY_CODE":"US",
"LAUNCH_DATE":"1958-03-17",
"SITE":"AFETR",
"DECAY_DATE":null,
"FILE":"3579069",
"GP_ID":"213154355",
"TLE_LINE0":"0 VANGUARD 1",
"TLE_LINE1":"1     5U 58002B   22264.13679288  .00000200  00000-0  27090-3 0  9993",
"TLE_LINE2":"2     5  34.2439 204.5346 1846867 108.2181 272.7424 10.85009204295033"},
{"CCSDS_OMM_VERS":"2.0",
"COMMENT":"GENERATED VIA SPACE-TRACK.ORG API",
"CREATION_DATE":"2022-09-22T22:24:44",
"ORIGINATOR":"18 SPCS",
"OBJECT_NAME":"VANGUARD 1",
"OBJECT_ID":"1958-002B",
"CENTER_NAME":"EARTH",
"REF_FRAME":"TEME",
"TIME_SYSTEM":"UTC",
"MEAN_ELEMENT_THEORY":"SGP4",
"EPOCH":"2022-09-22T12:25:14.832192",
"MEAN_MOTION":"10.85009788",
"ECCENTRICITY":"0.18468110",
"INCLINATION":"34.2438",
"RA_OF_ASC_NODE":"200.2790",
"ARG_OF_PERICENTER":"114.4341",
"MEAN_ANOMALY":"265.9624",
"EPHEMERIS_TYPE":"0",
"CLASSIFICATION_TYPE":"U",
"NORAD_CAT_ID":"5",
"ELEMENT_SET_NO":"999",
"REV_AT_EPOCH":"29508",
"BSTAR":"0.00025574000000",
"MEAN_MOTION_DOT":"0.00000190",
"MEAN_MOTION_DDOT":"0.0000000000000",
"SEMIMAJOR_AXIS":"8618.785",
"PERIOD":"132.718",
"APOAPSIS":"3832.377",
"PERIAPSIS":"648.924",
"OBJECT_TYPE":"PAYLOAD",
"RCS_SIZE":"SMALL",
"COUNTRY_CODE":"US",
"LAUNCH_DATE":"1958-03-17",
"SITE":"AFETR",
"DECAY_DATE":null,
"FILE":"3580347",
"GP_ID":"213206666",
"TLE_LINE0":"0 VANGUARD 1",
"TLE_LINE1":"1 00005U 58002B   22265.51753278  .00000190  00000-0  25574-3 0  9991",
"TLE_LINE2":"2 00005  34.2438 200.2790 1846811 114.4341 265.9624 10.85009788295082"},
{"CCSDS_OMM_VERS":"2.0",
"COMMENT":"GENERATED VIA SPACE-TRACK.ORG API",
"CREATION_DATE":"2022-09-25T17:39:09",
"ORIGINATOR":"18 SPCS",
"OBJECT_NAME":"VANGUARD 1",
"OBJECT_ID":"1958-002B",
"CENTER_NAME":"EARTH",
"REF_FRAME":"TEME",
"TIME_SYSTEM":"UTC",
"MEAN_ELEMENT_THEORY":"SGP4",
"EPOCH":"2022-09-25T11:06:32.444928",
"MEAN_MOTION":"10.85011056",
"ECCENTRICITY":"0.18466830",
"INCLINATION":"34.2436",
"RA_OF_ASC_NODE":"191.2006",
"ARG_OF_PERICENTER":"127.6953",
"MEAN_ANOMALY":"250.5858",
"EPHEMERIS_TYPE":"0",
"CLASSIFICATION_TYPE":"U",
"NORAD_CAT_ID":"5",
"ELEMENT_SET_NO":"999",
"REV_AT_EPOCH":"29540",
"BSTAR":"0.00026771000000",
"MEAN_MOTION_DOT":"0.00000203",
"MEAN_MOTION_DDOT":"0.0000000000000",
"SEMIMAJOR_AXIS":"8618.779",
"PERIOD":"132.718",
"APOAPSIS":"3832.259",
"PERIAPSIS":"649.029",
"OBJECT_TYPE":"PAYLOAD",
"RCS_SIZE":"SMALL",
"COUNTRY_CODE":"US",
"LAUNCH_DATE":"1958-03-17",
"SITE":"AFETR",
"DECAY_DATE":null,
"FILE":"3583351",
"GP_ID":"213422895",
"TLE_LINE0":"0 VANGUARD 1",
"TLE_LINE1":"1 00005U 58002B   22268.46287552  .00000203  00000-0  26771-3 0  9990",
"TLE_LINE2":"2 00005  34.2436 191.2006 1846683 127.6953 250.5858 10.85011056295407"}]